NORAD_CAT_ID,OBJECT_NAME,OBJECT_TYPE,EPOCH,MEAN_MOTION,ECCENTRICITY,INCLINATION,RA_OF_ASC_NODE,ARG_OF_PERICENTER,MEAN_ANOMALY,BSTAR,MEAN_MOTION_DOT,MEAN_MOTION_DDOT,TLE_LINE0,TLE_LINE1,TLE_LINE2,SEMIMAJOR_AXIS,PERIOD,APOGEE,PERIGEE,DECAYED
49754.0,STARLINK-3193,PAYLOAD,2024-03-04 14:43:39,15.08851729,0.0001636,53.216,199.1093,67.7296,292.387,0.00015622,2.2e-05,0.0,0 STARLINK-3193,1 49754U 21115AG  24064.61365691  .00002200  00000-0  15622-3 0  9995,2 49754  53.2160 199.1093 0001636  67.7296 292.3870 15.08851729124704,6917.845,95.437,540.841,538.578,0.0
49754.0,STARLINK-3193,PAYLOAD,2024-03-05 14:34:27,15.08837159,0.0001198,53.2151,194.646,92.4775,267.6354,-4.4075e-05,-9.89e-06,0.0,0 STARLINK-3193,1 49754U 21115AG  24065.60726421 -.00000989  00000-0 -44075-4 0  9996,2 49754  53.2151 194.6460 0001198  92.4775 267.6354 15.08837159124851,6917.889,95.438,540.583,538.925,0.0
49754.0,STARLINK-3193,PAYLOAD,2024-03-05 16:09:50,15.08836538,0.0001179,53.2151,194.3492,83.918,276.1946,-5.7716e-05,-1.206e-05,0.0,0 STARLINK-3193,1 49754U 21115AG  24065.67350440 -.00001206  00000-0 -57716-4 0  9996,2 49754  53.2151 194.3492 0001179  83.9180 276.1946 15.08836538125973,6917.891,95.438,540.572,538.94,0.0
49754.0,STARLINK-3193,PAYLOAD,2024-03-06 14:25:15,15.08829503,0.0001486,53.2149,190.1887,70.5601,289.5551,0.0004546,6.952e-05,0.0,0 STARLINK-3193,1 49754U 21115AG  24066.60087684  .00006952  00000-0  45460-3 0  9990,2 49754  53.2149 190.1887 0001486  70.5601 289.5551 15.08829503125001,6917.912,95.438,540.805,538.749,0.0
49754.0,STARLINK-3193,PAYLOAD,2024-03-07 14:16:02,15.08858251,0.0001543,53.2148,185.7251,93.7033,266.4136,0.00082412,0.00012859,0.0,0 STARLINK-3193,1 49754U 21115AG  24067.59447069  .00012859  00000-0  82412-3 0  9997,2 49754  53.2148 185.7251 0001543  93.7033 266.4136 15.08858251125156,6917.825,95.436,540.757,538.622,0.0
49754.0,STARLINK-3193,PAYLOAD,2024-03-08 12:31:25,15.08854941,0.000135,53.2164,181.5651,91.1412,268.9734,0.00038217,5.802e-05,0.0,0 STARLINK-3193,1 49754U 21115AG  24068.52182633  .00005802  00000-0  38217-3 0  9998,2 49754  53.2164 181.5651 0001350  91.1412 268.9734 15.08854941126403,6917.835,95.437,540.634,538.766,0.0
49754.0,STARLINK-3193,PAYLOAD,2024-03-08 14:06:48,15.08856054,0.0001274,53.2168,181.266,90.1523,269.9615,0.00036973,5.604e-05,0.0,0 STARLINK-3193,1 49754U 21115AG  24068.58806558  .00005604  00000-0  36973-3 0  9990,2 49754  53.2168 181.2660 0001274  90.1523 269.9615 15.08856054125305,6917.831,95.437,540.578,538.815,0.0
49754.0,STARLINK-3193,PAYLOAD,2024-03-09 13:57:36,15.08843056,0.000129,53.2163,176.8059,90.0152,270.0988,6.5064e-05,7.48e-06,0.0,0 STARLINK-3193,1 49754U 21115AG  24069.58166960  .00000748  00000-0  65064-4 0  9995,2 49754  53.2163 176.8059 0001290  90.0152 270.0988 15.08843056126560,6917.871,95.437,540.628,538.844,0.0
49754.0,STARLINK-3193,PAYLOAD,2024-03-10 13:48:23,15.08840194,0.0001215,53.2159,172.3459,83.7455,276.3676,0.00015411,2.166e-05,0.0,0 STARLINK-3193,1 49754U 21115AG  24070.57527346  .00002166  00000-0  15411-3 0  9991,2 49754  53.2159 172.3459 0001215  83.7455 276.3676 15.08840194126712,6917.88,95.438,540.585,538.904,0.0
49754.0,STARLINK-3193,PAYLOAD,2024-03-10 16:59:09,15.08843518,0.0001233,53.2159,171.7513,83.0056,277.1077,0.00023386,3.436e-05,0.0,0 STARLINK-3193,1 49754U 21115AG  24070.70775270  .00003436  00000-0  23386-3 0  9998,2 49754  53.2159 171.7513 0001233  83.0056 277.1077 15.08843518125622,6917.87,95.437,540.588,538.882,0.0
49754.0,STARLINK-3193,PAYLOAD,2024-03-11 13:39:10,15.08852745,0.0001301,53.2157,167.8877,99.6683,260.4456,0.00044646,6.827e-05,0.0,0 STARLINK-3193,1 49754U 21115AG  24071.56887143  .00006827  00000-0  44646-3 0  9995,2 49754  53.2157 167.8877 0001301  99.6683 260.4456 15.08852745125756,6917.841,95.437,540.606,538.806,0.0
49754.0,STARLINK-3193,PAYLOAD,2024-03-12 11:54:34,15.08842511,0.0001435,53.2164,163.7278,104.9689,255.1462,2.9858e-05,1.87e-06,0.0,0 STARLINK-3193,1 49754U 21115AG  24072.49623266  .00000187  00000-0  29858-4 0  9994,2 49754  53.2164 163.7278 0001435 104.9689 255.1462 15.08842511127006,6917.873,95.437,540.73,538.745,0.0
49754.0,STARLINK-3193,PAYLOAD,2024-03-12 15:05:20,15.08842697,0.0001394,53.2163,163.1332,99.7635,260.3515,6.599e-05,7.63e-06,0.0,0 STARLINK-3193,1 49754U 21115AG  24072.62871295  .00000763  00000-0  65990-4 0  9993,2 49754  53.2163 163.1332 0001394  99.7635 260.3515 15.08842697125916,6917.872,95.437,540.701,538.773,0.0
49754.0,STARLINK-3193,PAYLOAD,2024-03-13 11:45:21,15.08841684,0.0001403,53.2166,159.265,91.6368,268.4785,3.4778e-05,2.66e-06,0.0,0 STARLINK-3193,1 49754U 21115AG  24073.48983420  .00000266  00000-0  34778-4 0  9990,2 49754  53.2166 159.2650 0001403  91.6368 268.4785 15.08841684126041,6917.875,95.437,540.711,538.77,0.0
49754.0,STARLINK-3193,PAYLOAD,2024-03-14 05:14:36,15.08844792,0.0001667,53.2173,155.9934,93.4755,266.6427,0.00016192,2.29e-05,0.0,0 STARLINK-3193,1 49754U 21115AG  24074.21847256  .00002290  00000-0  16192-3 0  9996,2 49754  53.2173 155.9934 0001667  93.4755 266.6427 15.08844792127260,6917.866,95.437,540.884,538.578,0.0
49754.0,STARLINK-3193,PAYLOAD,2024-03-14 11:36:08,15.0884746,0.0001641,53.2168,154.8037,93.3218,266.7962,0.00018545,2.665e-05,0.0,0 STARLINK-3193,1 49754U 21115AG  24074.48343070  .00002665  00000-0  18545-3 0  9990,2 49754  53.2168 154.8037 0001641  93.3218 266.7962 15.08847460126192,6917.858,95.437,540.858,538.587,0.0
49754.0,STARLINK-3193,PAYLOAD,2024-03-15 05:05:23,15.08841623,0.0001507,53.2161,151.5325,92.7802,267.3362,6.7967e-05,7.94e-06,0.0,0 STARLINK-3193,1 49754U 21115AG  24075.21207364  .00000794  00000-0  67967-4 0  9991,2 49754  53.2161 151.5325 0001507  92.7802 267.3362 15.08841623127414,6917.875,95.437,540.783,538.698,0.0
49754.0,STARLINK-3193,PAYLOAD,2024-03-15 11:26:55,15.08839938,0.0001607,53.2162,150.3431,99.9737,260.1437,6.7359e-06,-1.81e-06,0.0,0 STARLINK-3193,1 49754U 21115AG  24075.47703358 -.00000181  00000-0  67359-5 0  9990,2 49754  53.2162 150.3431 0001607  99.9737 260.1437 15.08839938126348,6917.881,95.438,540.857,538.634,0.0
49754.0,STARLINK-3193,PAYLOAD,2024-03-16 09:42:19,15.08836962,0.0001716,53.2174,146.1805,108.3548,251.763,3.333e-05,2.42e-06,0.0,0 STARLINK-3193,1 49754U 21115AG  24076.40439732  .00000242  00000-0  33330-4 0  9994,2 49754  53.2174 146.1805 0001716 108.3548 251.7630 15.08836962127598,6917.89,95.438,540.942,538.568,0.0
49754.0,STARLINK-3193,PAYLOAD,2024-03-16 14:28:29,15.08842194,0.0001655,53.2169,145.2856,106.5644,253.553,1.6277e-06,-2.62e-06,0.0,0 STARLINK-3193,1 49754U 21115AG  24076.60311480 -.00000262  00000-0  16277-5 0  9990,2 49754  53.2169 145.2856 0001655 106.5644 253.5530 15.08842194126511,6917.874,95.437,540.884,538.594,0.0
49754.0,STARLINK-3193,PAYLOAD,2024-03-17 09:33:06,15.08838052,0.0001663,53.2171,141.7176,107.8932,252.2241,8.3441e-05,1.04e-05,0.0,0 STARLINK-3193,1 49754U 21115AG  24077.39799709  .00001040  00000-0  83441-4 0  9991,2 49754  53.2171 141.7176 0001663 107.8932 252.2241 15.08838052126639,6917.886,95.438,540.902,538.601,0.0
49754.0,STARLINK-3193,PAYLOAD,2024-03-18 04:37:45,15.08832315,0.0001586,53.2176,138.1487,94.7994,265.3179,3.1281e-05,2.1e-06,0.0,0 STARLINK-3193,1 49754U 21115AG  24078.19288586  .00000210  00000-0  31281-4 0  9999,2 49754  53.2176 138.1487 0001586  94.7994 265.3179 15.08832315127862,6917.904,95.438,540.866,538.672,0.0
49754.0,STARLINK-3193,PAYLOAD,2024-03-18 09:23:54,15.08833367,0.0001557,53.2173,137.2566,95.1233,264.9937,3.3005e-05,2.37e-06,0.0,0 STARLINK-3193,1 49754U 21115AG  24078.39160572  .00000237  00000-0  33005-4 0  9990,2 49754  53.2173 137.2566 0001557  95.1233 264.9937 15.08833367126781,6917.901,95.438,540.843,538.689,0.0
49754.0,STARLINK-3193,PAYLOAD,2024-03-19 10:50:04,15.08847873,0.0001491,53.2171,132.5018,86.8799,273.2364,0.00015104,2.117e-05,0.0,0 STARLINK-3193,1 49754U 21115AG  24079.45143673  .00002117  00000-0  15104-3 0  9999,2 49754  53.2171 132.5018 0001491  86.8799 273.2364 15.08847873128056,6917.856,95.437,540.753,538.69,0.0
49754.0,STARLINK-3193,PAYLOAD,2024-03-20 10:40:51,15.08841179,0.0002018,53.2183,128.043,68.3171,291.8035,0.00015168,2.127e-05,0.0,0 STARLINK-3193,1 49754U 21115AG  24080.44504382  .00002127  00000-0  15168-3 0  9999,2 49754  53.2183 128.0430 0002018  68.3171 291.8035 15.08841179128203,6917.877,95.437,541.138,538.346,0.0
49754.0,STARLINK-3193,PAYLOAD,2024-03-20 12:16:14,15.08848533,0.0001655,53.2177,127.7399,97.6866,262.4314,0.00015089,2.115e-05,0.0,0 STARLINK-3193,1 49754U 21115AG  24080.51127662  .00002115  00000-0  15089-3 0  9998,2 49754  53.2177 127.7399 0001655  97.6866 262.4314 15.08848533127101,6917.854,95.437,540.864,538.574,0.0
49754.0,STARLINK-3193,PAYLOAD,2024-03-21 10:31:38,15.08848773,0.0001735,53.2167,123.5801,77.5019,282.6167,4.9984e-05,5.08e-06,0.0,0 STARLINK-3193,1 49754U 21115AG  24081.43863868  .00000508  00000-0  49984-4 0  9991,2 49754  53.2167 123.5801 0001735  77.5019 282.6167 15.08848773127249,6917.854,95.437,540.919,538.518,0.0
49754.0,STARLINK-3193,PAYLOAD,2024-03-22 11:57:47,15.08856924,0.0001537,53.2165,118.8171,99.2089,260.9077,0.00011395,1.527e-05,0.0,0 STARLINK-3193,1 49754U 21115AG  24082.49846593  .00001527  00000-0  11395-3 0  9990,2 49754  53.2165 118.8171 0001537  99.2089 260.9077 15.08856924128519,6917.829,95.436,540.757,538.63,0.0
49754.0,STARLINK-3193,PAYLOAD,2024-03-23 05:27:03,15.08828338,0.0001399,53.2156,115.551,90.999,269.1163,-0.00014371,-2.574e-05,0.0,0 STARLINK-3193,1 49754U 21115AG  24083.22712758 -.00002574  00000-0 -14371-3 0  9999,2 49754  53.2156 115.5510 0001399  90.9990 269.1163 15.08828338128622,6917.916,95.438,540.749,538.813,0.0
49754.0,STARLINK-3193,PAYLOAD,2024-03-23 11:48:36,15.08832495,0.0001466,53.2154,114.3587,102.6706,257.445,-9.2207e-05,-1.755e-05,0.0,0 STARLINK-3193,1 49754U 21115AG  24083.49208596 -.00001755  00000-0 -92207-4 0  9993,2 49754  53.2154 114.3587 0001466 102.6706 257.4450 15.08832495127551,6917.903,95.438,540.782,538.754,0.0
